#dP2021  3 21  0  0  0.00000000      97 __u+U IGS14 FIT  IAC
## 2150      0.00000000   900.00000000 59294 0.0000000000000
+  124   C01C02C03C04C05C06C07C08C09C10C11C12C13C14C16C19C20
+        C21C22C23C24C25C26C27C28C29C30C32C33C34C35C36C37C38
+        C39C40C41C42C43C44C45C46C60E01E02E03E04E05E07E08E09
+        E11E12E13E14E15E18E19E21E24E25E26E27E30E31E33E36G01
+        G02G03G04G05G06G07G08G09G10G11G12G13G14G15G16G17G18
+        G19G20G21G22G23G24G25G26G27G28G29G30G31G32J01J02J03
+        J07R01R02R03R04R05R07R08R09R11R12R13R14R15R16R17R18
+        R19R20R21R22R24  0  0  0  0  0  0  0  0  0  0  0  0
++         0  0  0  0  0  0  0  0  0  0  0  0  0  0  0  0  0
++         0  0  0  0  0  0  0  0  0  0  0  0  0  0  0  0  0
++         0  0  0  0  0  0  0  0  0  0  0  0  0  0  0  0  0
++         0  0  0  0  0  0  0  0  0  0  0  0  0  0  0  0  0
++         0  0  0  0  0  0  0  0  0  0  0  0  0  0  0  0  0
++         0  0  0  0  0  0  0  0  0  0  0  0  0  0  0  0  0
++         0  0  0  0  0  0  0  0  0  0  0  0  0  0  0  0  0
++         0  0  0  0  0  0  0  0  0  0  0  0  0  0  0  0  0
%c M  cc GPS ccc cccc cccc cccc cccc ccccc ccccc ccccc ccccc
%c cc cc ccc ccc cccc cccc cccc cccc ccccc ccccc ccccc ccccc
%f  1.2500000  1.025000000  0.00000000000  0.000000000000000
%f  0.0000000  0.000000000  0.00000000000  0.000000000000000
%i    0    0    0    0      0      0      0      0         0
%i    0    0    0    0      0      0      0      0         0
/* INFORMATION & ANALYSIS CENTER (IAC)            FINAL DATA
/* S/V CLOCKS ARE ALIGNED TO GNSS TIME                      
/* G:C1WC2W R:C1PC2P E:C1XC5X C:C2IC6I J:C1CC2S             
/* PCV:IGS14_2134 OL/AL:FES2004  NONE     YN ORB:CoN CLK:CoN
*  2021 03 21 14 30  0.00000000
PC01      0.000000      0.000000      0.000000 999999.999999
PC02   4366.382475  41952.648316    746.835264    421.260309
PC03 -14801.297065  39452.319225   1097.736400   -470.503625
PC04 -39594.502100  14468.142443    467.297752      8.111483
PC05  21827.887488  36068.428559    494.207088     34.060220
PC06 -24932.951628  31020.170800 -14166.175824    198.673515
PC07 -10603.151919  34331.430065 -21397.867041    -39.683228
PC08 -12863.875364  17646.627591  36150.107082   -898.407206
PC09 -11984.087518  30657.151643 -26300.608778    652.750507
PC10    404.588876  40659.971885 -10045.018149    -68.354542
PC11  13437.420072   9570.188014  22575.806321   -855.884777
PC12  -5467.196678  18305.311705  20372.274403    881.727631
PC13   2568.390159  24479.204096  34383.392099    189.284065
PC14  10867.431551  20283.856452 -15717.245239    266.177506
PC16 -21018.728181  31752.513901 -18210.203660   -744.811596
PC19 -14618.523637 -10889.225012  21164.839496    769.713146
PC20  -6278.873004 -25614.973691   9187.393245   -934.425027
PC21  -6305.094065  25674.802364   8920.654447   -896.936176
PC22 -14748.869729  10550.146206  21210.794979   -926.404027
PC23  21447.155568  -1972.629531  17744.825850   -879.195282
PC24  13072.740791  19927.607680 -14552.023679   -789.198393
PC25  25138.660628  11793.635198   2884.358836   -945.008309
PC26  -4553.380309  15866.894588 -22513.541007    932.278739
PC27  14740.874634 -19085.109031 -14041.117057    502.299125
PC28  25280.717537 -11424.046921   3031.576382    -95.790614
PC29 -21037.361818  -2118.567080 -18222.138818    368.000111
PC30  -4457.449353 -15617.005013 -22693.569046    454.098902
PC32   6079.727978 -25751.580218  -8864.509221   -917.902446
PC33  14666.675983  10869.526219 -21090.992490   -945.370482
PC34   5117.304681  15327.497890  22746.252412   -713.972973
PC35 -24952.293136  12095.922591  -3324.743333   -364.335723
PC36 -24766.497165 -12599.747395  -2540.502362   -739.241839
PC37   5865.054229 -15273.594242  22616.621714   -880.177481
PC38 -10236.488456  21394.803393  34888.611140    137.215870
PC39 -18245.803264  33141.505972 -18748.217260     29.579097
PC40  -3829.339430  40041.161668 -12403.257795    143.173933
PC41  14787.078917 -10331.388458 -21238.323231   -934.081752
PC42   5836.895229  25920.445864  -8461.272879   -937.797765
PC43  20756.113533   2708.769771  18436.257617   -649.552381
PC44 -14294.223218  19622.770454  13789.487990     97.178446
PC45 -21329.710762   2024.826950 -17869.866976    392.640567
PC46 -13931.081621 -19747.309294  13922.204328    352.757554
PC60   7255.933609  41516.981889   1131.055313      0.009741
PE01 -20636.095903 -17561.333582 -11906.631869  -1070.222530
PE02  20658.936658  17495.983152  11986.506479    206.578135
PE03  15118.670244   7984.784473 -24161.265034   -411.346246
PE04 -20383.683137  12662.170198  17338.222852   -733.556272
PE05    887.188731  24279.159896 -16903.551284   -295.246640
PE07  13700.028127 -26244.553534   -118.844432   -515.583355
PE08  20211.962247 -13130.188918 -17186.868306   6029.805189
PE09 -13474.842613  26346.734413    -16.093970   5727.403681
PE11 -14500.184483  14692.012871  21221.522427   6182.212369
PE12 -28646.045359   5138.426862   5480.906861   5299.242851
PE13  14859.423795 -14555.938743 -21045.395854    413.873038
PE14  -1163.630973 -24502.899535 -21203.160180  -1369.482805
PE15  28603.011371  -5227.670661  -5500.654317    823.528180
PE18  -1500.474797  18664.212206  14295.927645  -1497.685141
PE19 -13704.852162 -10254.126378  24156.408959    232.392091
PE21 -11938.236095 -26375.732583   6138.811166   -654.857731
PE24  -4760.400855  19758.791035 -21546.332559   -804.627480
PE25  11807.676361  26401.699634  -6323.192883   -528.999263
PE26  -8387.503004 -15335.465906 -23880.586335   2016.347644
PE27   4055.430807 -20218.539803  21228.298941      5.727056
PE30  17987.398349  -1255.098095  23464.337805   3089.082517
PE31 -17544.071914   2232.988324 -23732.898521   -479.384676
PE33 -25501.334568  -7143.879663 -13227.641657   -466.746052
PE36   7597.103930  15303.068260  24177.337241   -182.952252
PG01 -16530.202938 -13683.620811 -16122.990748    736.019910
PG02  -8338.516134  14282.070470  21450.304971   -588.256110
PG03 -13067.523715 -22328.025801   6180.448330   -114.299430
PG04  -6737.330667 -14696.461826  21070.244474   -187.479996
PG05   2399.351530  24232.370346  10234.331517    -36.838367
PG06 -20642.811377   6992.518045  15285.549018      2.061464
PG07 -25517.692184  -7330.090010   4185.514731     97.115329
PG08    -15.067180 -19687.561948 -17680.431904    -14.565749
PG09 -15684.397845  -4131.404625  20976.612089   -332.873275
PG10  14715.858148  -3407.848019 -21745.981752    -85.620538
PG11 -10521.670725 -13353.267076 -20800.712880      7.349931
PG12   9429.492006  24737.163688   2760.039498    -17.040051
PG13 -10265.617071  21251.055029 -12190.241615    110.448344
PG14 -15362.967429   1931.711033 -21593.677882     99.649121
PG15   3068.832078  19743.040318 -17684.771786   -161.619552
PG16   2211.951129 -23047.701602  12337.666122   -297.419013
PG17 -20833.189990  11796.031660 -11068.487128    413.364854
PG18  26128.645102   4940.571305    242.837565    350.945644
PG19 -20420.579938  16461.946738  -4103.104325    -23.424393
PG20  18911.149881  11557.318265 -14832.972489    523.983840
PG21  -9426.932210 -14606.837908 -19485.901803    104.888160
PG22  -9762.069711 -24599.171138  -2995.002447   -655.678221
PG23  17275.617816   8362.708052 -18397.414103    116.895861
PG24  11561.272229  15077.355914 -18953.095713      0.783014
PG25  16376.400539  15545.939759  13940.135291    103.188555
PG26   8158.226429 -16289.325066  19183.221286     61.182105
PG27  10732.310111 -22530.268651  -8691.204730    -98.148444
PG28 -13972.044964   4542.620333 -21574.397210    598.838264
PG29  15255.547361   4381.557229  21259.189494   -315.862304
PG30 -25246.242937   1563.023412  -8425.236755   -401.629634
PG31  18985.149863  -8463.234594  16713.341098   -106.907625
PG32  20171.288923 -13732.162967 -10173.917018     21.523561
PJ01 -29039.963752  26580.016238  20031.547457   -357.063133
PJ02 -21508.717407  19210.527459 -26299.489399      3.787215
PJ03 -30102.497490  29200.714064   9583.933586     -2.063435
PJ07 -25402.812222  33661.577776    -21.061062     -0.003839
PR01   5688.890657  17363.473947 -17787.611725     76.712892
PR02  11574.798472  -4199.402739 -22286.117244    471.647298
PR03   9677.040690 -20404.027629 -11765.591725     32.786030
PR04   2374.569117 -24851.758644   5253.851521     78.869109
PR05  -6180.065983 -15422.839642  19360.334120     68.545178
PR07  -9554.591578  20824.352451  11299.272433    -42.560469
PR08  -2379.285065  24868.051274  -5149.529979    -58.062166
PR09 -19119.376506  -6006.644951 -15810.891606    -16.024190
PR11   7929.389219  17191.415255 -17084.051490      2.055889
PR12  19134.817192  16876.108714   -615.957923    214.381690
PR13  19182.978684   6513.921409  15480.435553    -52.295469
PR14   7624.210732  -8064.750433  22972.524054     62.261213
PR15  -7951.864072 -17501.929048  16778.190940    104.801364
PR16 -19748.263527 -16030.537500   -360.722911    -12.798729
PR17  20040.120225 -11828.970647 -10472.072224    409.858051
PR18   5250.195969 -12075.278068 -21817.361300     70.541647
PR19 -11391.606923  -6644.423169 -21832.826879   -136.595082
PR20 -24081.174861   3838.776535  -7561.392006    -45.714230
PR21 -19305.678121  11979.507576  11578.632012   -196.020395
PR22  -4315.870717  11834.911162  22187.454997   -103.743713
PR24  24185.451592  -4385.425482   6848.501643     35.841671
EOF
